ONEWEB-0176             
1 48210U 21031A   25346.00534667 -.00000585  00000+0 -16138-2 0  9993
2 48210  87.8991 326.9933 0001585  77.4544 282.6763 13.14503190223721
ONEWEB-0184             
1 48211U 21031B   25346.20675707 -.00000221  00000+0 -63152-3 0  9993
2 48211  87.9003 326.9336 0002180  63.0773 297.0579 13.14503541223726
ONEWEB-0179             
1 48212U 21031C   25346.25354381  .00002250  00000+0  60342-2 0  9990
2 48212  87.8999 326.9318 0001771  87.6212 272.5121 13.14493843223774
ONEWEB-0180             
1 48213U 21031D   25346.20992447 -.00000214  00000+0 -61280-3 0  9990
2 48213  87.9000 326.9386 0001536  76.1262 284.0038 13.14503338223654
ONEWEB-0218             
1 48214U 21031E   25346.00377993  .00000099  00000+0  23208-3 0  9999
2 48214  87.9001 326.9800 0001991  57.6632 302.4690 13.14503178223782
ONEWEB-0209             
1 48215U 21031F   25345.99267534 -.00000187  00000+0 -53948-3 0  9990
2 48215  87.8988 327.0190 0001511  84.3964 275.7338 13.14502542223788
ONEWEB-0198             
1 48216U 21031G   25345.97694530 -.00000173  00000+0 -50219-3 0  9992
2 48216  87.8989 327.0193 0001559  71.9543 288.1756 13.14504038223896
ONEWEB-0189             
1 48217U 21031H   25345.98949359 -.00000204  00000+0 -58589-3 0  9999
2 48217  87.8993 326.9906 0001586  73.5121 286.6183 13.14503900223638
